CHUANGXIN 1-02 (CX-1-02)
1 33434U 08056B   26185.64821135  .00000004  00000+0  18560-4 0  9995
2 33434  98.6124 211.7405 0015531  88.9315 271.3647 14.30156727921118
STARS (KUKAI)           
1 33498U 09002G   26184.80893888  .00005386  00000+0  48681-3 0  9992
2 33498  98.1560 132.7971 0010291 111.0617 249.1704 14.95867721940963
KKS-1 (KISEKI)          
1 33499U 09002H   26185.25784995  .00001600  00000+0  20293-3 0  9995
2 33499  98.1181 107.9705 0006635 228.4343 131.6302 14.83168983938729
UK-DMC 2                
1 35683U 09041C   26185.64761435  .00000456  00000+0  73329-4 0  9999
2 35683  97.8863 320.1893 0001306  99.3472 260.7886 14.76081029909146
OCEANSAT-2              
1 35931U 09051A   26185.57064271 -.00000200  00000+0 -11132-3 0  9994
2 35931  98.2318 170.6869 0016609 184.4014 175.7010 13.99658576881765
SWISSCUBE               
1 35932U 09051B   26185.47808840  .00001528  00000+0  31098-3 0  9997
2 35932  98.4021  93.6669 0007217 148.5860 211.5774 14.62517748891680
BEESAT-1                
1 35933U 09051C   26185.01738541  .00001005  00000+0  21142-3 0  9997
2 35933  98.3948  92.7981 0005397 160.6033 199.5374 14.61748287891649
ITUPSAT1                
1 35935U 09051E   26185.02302402  .00000919  00000+0  19967-3 0  9998
2 35935  98.4031  91.9778 0007274 176.2481 183.8774 14.60466234891194
DMSP 5D-3 F18 (USA 210) 
1 35951U 09057A   26185.39572587  .00000287  00000+0  17166-3 0  9992
2 35951  98.9047 166.1280 0010575 196.4615 163.6216 14.14906679862026
PROBA-2                 
1 36037U 09059B   26185.50310942  .00000307  00000+0  82020-4 0  9993
2 36037  98.2455   8.6161 0012319 223.2526 136.7704 14.54870665884042
YAOGAN-7                
1 36110U 09069A   26185.41973833  .00000599  00000+0  89957-4 0  9999
2 36110  98.0049  71.1787 0024289 347.1078  12.9509 14.78027757892170
XIWANG-1 (HOPE-1)       
1 36122U 09072B   26185.57168150 -.00000551  00000+0 -13270-2 0  9994
2 36122 100.4037 139.1270 0007254 189.3062 170.7917 13.16437625795293
COSMOS 2463             
1 36519U 10017A   26185.57263387  .00000053  00000+0  40908-4 0  9998
2 36519  82.9591 236.9328 0037584  82.3512  85.4573 13.71666780810311
CARTOSAT-2B             
1 36795U 10035A   26185.59559906  .00000980  00000+0  14088-3 0  9999
2 36795  97.9940 236.0340 0012191 129.6349 230.5939 14.78608127862423
TISAT 1                 
1 36799U 10035E   26185.29489229  .00030047  00000+0  96087-3 0  9996
2 36799  98.0712 133.3699 0003634 140.6786 219.4718 15.32381693870328
YAOGAN-10               
1 36834U 10038A   26185.67391822  .00000358  00000+0  47832-4 0  9999
2 36834  97.8966 208.9388 0001651  82.6293  32.6101 14.85400542859808
SHIJIAN-6 04B (SJ-6 04B)
1 37180U 10051B   26185.57489174  .00001630  00000+0  13826-3 0  9995
2 37180  97.8727 191.1688 0006868 249.6439 110.4045 14.99370438858284
FENGYUN 3B              
1 37214U 10059A   26185.64885142  .00000514  00000+0  28885-3 0  9995
2 37214  98.9605 231.7369 0022807 135.2620  22.7232 14.14846629809892
COSMO-SKYMED 4          
1 37216U 10060A   26185.59142030  .00000241  00000+0  36836-4 0  9998
2 37216  97.8887   8.9384 0001446  85.9073 274.2305 14.82158318847145
O/OREOS (USA 219)       
1 37224U 10062C   26185.60784881  .00003680  00000+0  35173-3 0  9999
2 37224  71.9706  40.8762 0013324  26.2334 333.9509 14.93823053119247
RESOURCESAT-2           
1 37387U 11015A   26185.61434200  .00000145  00000+0  86075-4 0  9997
2 37387  98.7637 252.9352 0010965 201.4934 158.5784 14.21604472788655
YOUTHSAT                
1 37388U 11015B   26185.20134639  .00000208  00000+0  10535-3 0  9993
2 37388  98.3693 158.4890 0013332 294.5669  76.1928 14.25637242790068
APRIZESAT 6             
1 37793U 11044F   26185.00864773  .00000993  00000+0  14684-3 0  9992
2 37793  98.2349  95.8509 0043911  33.6747 347.0397 14.76943409799634
JUGNU                   
1 37839U 11058B   26185.38982096  .00000408  00000+0  73417-4 0  9999
2 37839  19.9588 203.9154 0018342 266.3518 222.4856 14.13781047761464
SRMSAT                  
1 37841U 11058D   26185.61869365  .00000423  00000+0  85947-4 0  9999
2 37841  19.9730 313.9643 0011848  35.9930  68.0324 14.11579515760289
